{
    "links": {
        "self": "http://www.neowsapp.com/rest/v1/neo/3989399?api_key=iIulBulltgU6a56xZRHN4H3l9WmuAYTsLGpBGhQ2"
    },
    "id": "3989399",
    "neo_reference_id": "3989399",
    "name": "(2020 BP15)",
    "designation": "2020 BP15",
    "nasa_jpl_url": "http://ssd.jpl.nasa.gov/sbdb.cgi?sstr=3989399",
    "absolute_magnitude_h": 22.063,
    "estimated_diameter": {
        "kilometers": {
            "estimated_diameter_min": 0.1027909729,
            "estimated_diameter_max": 0.2298476029
        },
        "meters": {
            "estimated_diameter_min": 102.7909729001,
            "estimated_diameter_max": 229.847602878
        },
        "miles": {
            "estimated_diameter_min": 0.0638713296,
            "estimated_diameter_max": 0.1428206348
        },
        "feet": {
            "estimated_diameter_min": 337.2407355297,
            "estimated_diameter_max": 754.0932094264
        }
    },
    "is_potentially_hazardous_asteroid": false,
    "close_approach_data": [
        {
            "close_approach_date": "2016-02-14",
            "close_approach_date_full": "2016-Feb-14 12:30",
            "epoch_date_close_approach": 1455453000000,
            "relative_velocity": {
                "kilometers_per_second": "27.8189322528",
                "kilometers_per_hour": "100148.1561101207",
                "miles_per_hour": "62228.1695563136"
            },
            "miss_distance": {
                "astronomical": "0.3983137316",
                "lunar": "154.9440415924",
                "kilometers": "59586885.839111692",
                "miles": "37025573.9617456696"
            },
            "orbiting_body": "Earth"
        },
        {
            "close_approach_date": "2020-01-29",
            "close_approach_date_full": "2020-Jan-29 07:51",
            "epoch_date_close_approach": 1580284260000,
            "relative_velocity": {
                "kilometers_per_second": "18.6752368211",
                "kilometers_per_hour": "67230.8525560309",
                "miles_per_hour": "41774.6372451627"
            },
            "miss_distance": {
                "astronomical": "0.1003597548",
                "lunar": "39.0399446172",
                "kilometers": "15013605.551802276",
                "miles": "9329021.8973963688"
            },
            "orbiting_body": "Earth"
        },
        {
            "close_approach_date": "2031-08-30",
            "close_approach_date_full": "2031-Aug-30 17:19",
            "epoch_date_close_approach": 1945876740000,
            "relative_velocity": {
                "kilometers_per_second": "25.0258950761",
                "kilometers_per_hour": "90093.222273834",
                "miles_per_hour": "55980.4246956498"
            },
            "miss_distance": {
                "astronomical": "0.2769224522",
                "lunar": "107.7228339058",
                "kilometers": "41427009.004296814",
                "miles": "25741549.7437474732"
            },
            "orbiting_body": "Earth"
        },
        {
            "close_approach_date": "2101-09-08",
            "close_approach_date_full": "2101-Sep-08 09:41",
            "epoch_date_close_approach": 4155615660000,
            "relative_velocity": {
                "kilometers_per_second": "20.068616222",
                "kilometers_per_hour": "72247.0183991435",
                "miles_per_hour": "44891.4876269567"
            },
            "miss_distance": {
                "astronomical": "0.071456013",
                "lunar": "27.796389057",
                "kilometers": "10689667.34349231",
                "miles": "6642251.281961478"
            },
            "orbiting_body": "Earth"
        }
    ],
    "orbital_data": {
        "orbit_id": "8",
        "orbit_determination_date": "2020-03-05 05:05:01",
        "first_observation_date": "2020-01-31",
        "last_observation_date": "2020-03-05",
        "data_arc_in_days": 34,
        "observations_used": 58,
        "orbit_uncertainty": "7",
        "minimum_orbit_intersection": ".00547274",
        "jupiter_tisserand_invariant": "3.085",
        "epoch_osculation": "2459000.5",
        "eccentricity": ".6904250147619785",
        "semi_major_axis": "2.494401920498477",
        "inclination": "4.573967624214164",
        "ascending_node_longitude": "180.0769857084627",
        "orbital_period": "1438.957858093173",
        "perihelion_distance": ".7722044377160087",
        "perihelion_argument": "240.2467052270629",
        "aphelion_distance": "4.216599403280946",
        "perihelion_time": "2458837.164134600411",
        "mean_anomaly": "40.86353968821012",
        "mean_motion": ".2501810584481272",
        "equinox": "J2000",
        "orbit_class": {
            "orbit_class_type": "APO",
            "orbit_class_description": "Near-Earth asteroid orbits which cross the Earth’s orbit similar to that of 1862 Apollo",
            "orbit_class_range": "a (semi-major axis) > 1.0 AU; q (perihelion) < 1.017 AU"
        }
    },
    "is_sentry_object": false
}